25286,IRIDIUM 63,1998,100.28,-1.0,-,86.41,Inactive,0,LEO,Kazakhstan,USA,Unknown,Unknown,Unknown,1 25286U 98021B   24272.86466490  .00001421  00000+0  48242-3 0  9993,2 25286  86.4058 191.6256 0002479  80.0084 280.1393 14.36031341386333,14.36031341,0.0002479,LEO
25319,IRIDIUM 69,1998,99.98,-1.0,-,86.4,Inactive,0,LEO,PRC,USA,Unknown,Unknown,Unknown,1 25319U 98026A   24272.90528006  .00002058  00000+0  64367-3 0  9995,2 25319  86.4034 205.6640 0003586 122.5086 237.6460 14.40303692385440,14.40303692,0.0003586,LEO
25320,IRIDIUM 71,1998,99.96,-1.0,-,86.4,Inactive,0,LEO,PRC,USA,Unknown,Unknown,Unknown,1 25320U 98026B   24272.88317655  .00001608  00000+0  49873-3 0  9995,2 25320  86.4041 200.4191 0001383 145.2267 214.9023 14.40599245385961,14.40599245,0.0001383,LEO
25344,IRIDIUM 73,1998,99.25,-1.0,-,86.45,Inactive,0,LEO,USA,USA,Unknown,Unknown,Unknown,1 25344U 98032C   24272.69546458  .00001620  00000+0  40552-3 0  9991,2 25344  86.4470 157.8114 0002573  96.6549 263.4949 14.50921695392634,14.50921695,0.0002573,LEO
25467,IRIDIUM 82,1998,95.04,-1.0,-,86.37,Inactive,0,LEO,USA,USA,Unknown,Unknown,Unknown,1 25467U 98051A   24272.94525252  .00024597  00000+0  11038-2 0  9999,2 25467  86.3722 236.3474 0115892 195.5363 164.2312 15.15126939384175,15.15126939,0.0115892,LEO
25273,IRIDIUM 57,1998,100.32,-1.0,-,86.39,Inactive,0,LEO,USA,USA,Unknown,Unknown,Unknown,1 25273U 98019B   24273.23039998  .00001197  00000+0  41012-3 0  9995,2 25273  86.3914 254.5126 0002304  90.0865 270.0595 14.35424865387552,14.35424865,0.0002304,LEO
